[
    {
        "Altitude(m)": 702873.1759906156,
        "Argument of Periapsis(deg)": 0.007973084830638947,
        "Eccentricity": 0.0,
        "Inclination(deg)": 45.0,
        "Latitude(deg)": 5.6779547312785175,
        "Longitude(deg)": 10.142766328971753,
        "Mean Anomaly(deg)": 8.073251653236582,
        "RAAN(deg)": 104.99247364097927,
        "Satellite Name": "Constellation 1 462",
        "Satellite Number": 462,
        "Semi-Major Axis(m)": 7083131.272910544,
        "Time(s)": 133
    },
    {
        "Altitude(m)": 702870.3182489038,
        "Argument of Periapsis(deg)": 0.008033032836884352,
        "Eccentricity": 0.0,
        "Inclination(deg)": 45.0,
        "Latitude(deg)": 5.720960895504631,
        "Longitude(deg)": 10.181947038597675,
        "Mean Anomaly(deg)": 8.13395279348648,
        "RAAN(deg)": 104.9924170518137,
        "Satellite Name": "Constellation 1 462",
        "Satellite Number": 462,
        "Semi-Major Axis(m)": 7083131.272910544,
        "Time(s)": 134
    },
    {
        "Altitude(m)": 702867.481191123,
        "Argument of Periapsis(deg)": 0.008092980843129758,
        "Eccentricity": 0.0,
        "Inclination(deg)": 45.0,
        "Latitude(deg)": 5.763963784028859,
        "Longitude(deg)": 10.221134265400005,
        "Mean Anomaly(deg)": 8.19465393373638,
        "RAAN(deg)": 104.99236046264812,
        "Satellite Name": "Constellation 1 462",
        "Satellite Number": 462,
        "Semi-Major Axis(m)": 7083131.272910544,
        "Time(s)": 135
    },
    {
        "Altitude(m)": 702864.6648112993,
        "Argument of Periapsis(deg)": 0.008152928849375162,
        "Eccentricity": 0.0,
        "Inclination(deg)": 45.0,
        "Latitude(deg)": 5.80696337106347,
        "Longitude(deg)": 10.26032805867636,
        "Mean Anomaly(deg)": 8.25535507398628,
        "RAAN(deg)": 104.99230387348256,
        "Satellite Name": "Constellation 1 462",
        "Satellite Number": 462,
        "Semi-Major Axis(m)": 7083131.272910544,
        "Time(s)": 136
    },
    {
        "Altitude(m)": 702861.8691033833,
        "Argument of Periapsis(deg)": 0.008212876855620568,
        "Eccentricity": 0.0,
        "Inclination(deg)": 45.0,
        "Latitude(deg)": 5.849959630808092,
        "Longitude(deg)": 10.299528467738904,
        "Mean Anomaly(deg)": 8.316056214236166,
        "RAAN(deg)": 104.99224728431697,
        "Satellite Name": "Constellation 1 462",
        "Satellite Number": 462,
        "Semi-Major Axis(m)": 7083131.272910544,
        "Time(s)": 137
    },
    {
        "Altitude(m)": 702859.0940612158,
        "Argument of Periapsis(deg)": 0.008272824861865974,
        "Eccentricity": 0.0,
        "Inclination(deg)": 45.0,
        "Latitude(deg)": 5.892952537449712,
        "Longitude(deg)": 10.338735541914351,
        "Mean Anomaly(deg)": 8.376757354486065,
        "RAAN(deg)": 104.99219069515141,
        "Satellite Name": "Constellation 1 462",
        "Satellite Number": 462,
        "Semi-Major Axis(m)": 7083131.272910544,
        "Time(s)": 138
    },
    {
        "Altitude(m)": 702856.3396785613,
        "Argument of Periapsis(deg)": 0.00833277286811138,
        "Eccentricity": 0.0,
        "Inclination(deg)": 45.0,
        "Latitude(deg)": 5.935942065162481,
        "Longitude(deg)": 10.377949330544203,
        "Mean Anomaly(deg)": 8.437458494735964,
        "RAAN(deg)": 104.99213410598585,
        "Satellite Name": "Constellation 1 462",
        "Satellite Number": 462,
        "Semi-Major Axis(m)": 7083131.272910544,
        "Time(s)": 139
    },
    {
        "Altitude(m)": 702853.6059490856,
        "Argument of Periapsis(deg)": 0.008392720874356788,
        "Eccentricity": 0.0,
        "Inclination(deg)": 45.0,
        "Latitude(deg)": 5.978928188107667,
        "Longitude(deg)": 10.417169882984732,
        "Mean Anomaly(deg)": 8.498159634985862,
        "RAAN(deg)": 104.99207751682027,
        "Satellite Name": "Constellation 1 462",
        "Satellite Number": 462,
        "Semi-Major Axis(m)": 7083131.272910544,
        "Time(s)": 140
    },
    {
        "Altitude(m)": 702850.8928663688,
        "Argument of Periapsis(deg)": 0.008452668880602192,
        "Eccentricity": 0.0,
        "Inclination(deg)": 45.0,
        "Latitude(deg)": 6.021910880433274,
        "Longitude(deg)": 10.456397080510126,
        "Mean Anomaly(deg)": 8.558860775235775,
        "RAAN(deg)": 104.9920209276547,
        "Satellite Name": "Constellation 1 462",
        "Satellite Number": 462,
        "Semi-Major Axis(m)": 7083131.272910544,
        "Time(s)": 141
    },
    {
        "Altitude(m)": 702848.2004238972,
        "Argument of Periapsis(deg)": 0.008512616886847598,
        "Eccentricity": 0.0,
        "Inclination(deg)": 45.0,
        "Latitude(deg)": 6.064890116275105,
        "Longitude(deg)": 10.495631308700625,
        "Mean Anomaly(deg)": 8.619561915485674,
        "RAAN(deg)": 104.99196433848913,
        "Satellite Name": "Constellation 1 462",
        "Satellite Number": 462,
        "Semi-Major Axis(m)": 7083131.272910544,
        "Time(s)": 142
    },
    {
        "Altitude(m)": 702845.528615071,
        "Argument of Periapsis(deg)": 0.008572564893093004,
        "Eccentricity": 0.0,
        "Inclination(deg)": 45.0,
        "Latitude(deg)": 6.107865869754935,
        "Longitude(deg)": 10.53487244886058,
        "Mean Anomaly(deg)": 8.680263055735573,
        "RAAN(deg)": 104.99190774932357,
        "Satellite Name": "Constellation 1 462",
        "Satellite Number": 462,
        "Semi-Major Axis(m)": 7083131.272910544,
        "Time(s)": 143
    },
    {
        "Altitude(m)": 702842.87743319,
        "Argument of Periapsis(deg)": 0.008632512899338408,
        "Eccentricity": 0.0,
        "Inclination(deg)": 45.0,
        "Latitude(deg)": 6.150838114981541,
        "Longitude(deg)": 10.574120550406466,
        "Mean Anomaly(deg)": 8.740964195985473,
        "RAAN(deg)": 104.991851160158,
        "Satellite Name": "Constellation 1 462",
        "Satellite Number": 462,
        "Semi-Major Axis(m)": 7083131.272910544,
        "Time(s)": 144
    },
    {
        "Altitude(m)": 702840.2468714761,
        "Argument of Periapsis(deg)": 0.008692460905583814,
        "Eccentricity": 0.0,
        "Inclination(deg)": 45.0,
        "Latitude(deg)": 6.19380682605034,
        "Longitude(deg)": 10.613375662770189,
        "Mean Anomaly(deg)": 8.801665336235372,
        "RAAN(deg)": 104.99179457099243,
        "Satellite Name": "Constellation 1 462",
        "Satellite Number": 462,
        "Semi-Major Axis(m)": 7083131.272910544,
        "Time(s)": 145
    },
    {
        "Altitude(m)": 702837.6369230447,
        "Argument of Periapsis(deg)": 0.00875240891182922,
        "Eccentricity": 0.0,
        "Inclination(deg)": 45.0,
        "Latitude(deg)": 6.2367719770433006,
        "Longitude(deg)": 10.652637835399018,
        "Mean Anomaly(deg)": 8.862366476485258,
        "RAAN(deg)": 104.99173798182686,
        "Satellite Name": "Constellation 1 462",
        "Satellite Number": 462,
        "Semi-Major Axis(m)": 7083131.272910544,
        "Time(s)": 146
    },
    {
        "Altitude(m)": 702835.0475809404,
        "Argument of Periapsis(deg)": 0.008812356918074627,
        "Eccentricity": 0.0,
        "Inclination(deg)": 45.0,
        "Latitude(deg)": 6.279733542028858,
        "Longitude(deg)": 10.691907117755676,
        "Mean Anomaly(deg)": 8.923067616735159,
        "RAAN(deg)": 104.9916813926613,
        "Satellite Name": "Constellation 1 462",
        "Satellite Number": 462,
        "Semi-Major Axis(m)": 7083131.272910544,
        "Time(s)": 147
    },
    {
        "Altitude(m)": 702832.478838101,
        "Argument of Periapsis(deg)": 0.008872304924320031,
        "Eccentricity": 0.0,
        "Inclination(deg)": 45.0,
        "Latitude(deg)": 6.3226914950614725,
        "Longitude(deg)": 10.73118339122152,
        "Mean Anomaly(deg)": 8.983768756985057,
        "RAAN(deg)": 104.99162480349572,
        "Satellite Name": "Constellation 1 462",
        "Satellite Number": 462,
        "Semi-Major Axis(m)": 7083131.272910544,
        "Time(s)": 148
    },
    {
        "Altitude(m)": 702829.9306873851,
        "Argument of Periapsis(deg)": 0.008932252930565437,
        "Eccentricity": 0.0,
        "Inclination(deg)": 45.0,
        "Latitude(deg)": 6.365645810182797,
        "Longitude(deg)": 10.770467041484752,
        "Mean Anomaly(deg)": 9.044469897234956,
        "RAAN(deg)": 104.99156821433016,
        "Satellite Name": "Constellation 1 462",
        "Satellite Number": 462,
        "Semi-Major Axis(m)": 7083131.272910544,
        "Time(s)": 149
    },
    {
        "Altitude(m)": 702827.4031215521,
        "Argument of Periapsis(deg)": 0.008992200936810843,
        "Eccentricity": 0.0,
        "Inclination(deg)": 45.0,
        "Latitude(deg)": 6.408596461419746,
        "Longitude(deg)": 10.809757949958204,
        "Mean Anomaly(deg)": 9.105171037484867,
        "RAAN(deg)": 104.99151162516458,
        "Satellite Name": "Constellation 1 462",
        "Satellite Number": 462,
        "Semi-Major Axis(m)": 7083131.272910544,
        "Time(s)": 150
    },
    {
        "Altitude(m)": 702824.8961332766,
        "Argument of Periapsis(deg)": 0.009052148943056249,
        "Eccentricity": 0.0,
        "Inclination(deg)": 45.0,
        "Latitude(deg)": 6.451543422785556,
        "Longitude(deg)": 10.849056166167728,
        "Mean Anomaly(deg)": 9.165872177734766,
        "RAAN(deg)": 104.99145503599901,
        "Satellite Name": "Constellation 1 462",
        "Satellite Number": 462,
        "Semi-Major Axis(m)": 7083131.272910544,
        "Time(s)": 151
    }
]